#aV2014  7 22  0  0  0.00000000     288 DD+AD WGS84 FIT  NGA
## 1802 172800.00000000   300.00000000 56860 0.0000000000000
+   32     1  2  3  4  5  6  7  8  9 10 11 12 13 14 15 16 17
+         18 19 20 21 22 23 24 25 26 27 28 29 30 31 32  0  0
+          0  0  0  0  0  0  0  0  0  0  0  0  0  0  0  0  0
+          0  0  0  0  0  0  0  0  0  0  0  0  0  0  0  0  0
+          0  0  0  0  0  0  0  0  0  0  0  0  0  0  0  0  0
++         2  2  2  2  2  2  2  2  2  2  2  2  2  2  2  2  2
++         2  2  2  2  2  2  2  2  2  2  2  2  2  2  2  0  0
++         0  0  0  0  0  0  0  0  0  0  0  0  0  0  0  0  0
++         0  0  0  0  0  0  0  0  0  0  0  0  0  0  0  0  0
++         0  0  0  0  0  0  0  0  0  0  0  0  0  0  0  0  0
%c cc cc ccc ccc cccc cccc cccc cccc ccccc ccccc ccccc ccccc
%c cc cc ccc ccc cccc cccc cccc cccc ccccc ccccc ccccc ccccc
%f  0.0000000  0.000000000  0.00000000000  0.000000000000000
%f  0.0000000  0.000000000  0.00000000000  0.000000000000000
%i    0    0    0    0      0      0      0      0         0
%i    0    0    0    0      0      0      0      0         0
/*      NGA, ST. LOUIS,MO.                                  
/*   EPHEMERIS COMPUTED FROM  1 DAYS OF DATA                
/*   EPOCHA SMOOTHER                                       
/* CCCCCCCCCCCCCCCCCCCCCCCCCCCCCCCCCCCCCCCCCCCCCCCCCCCCCCCCC
*  2014  7 22 19 35  0.00000000
P  1  13334.469260 -12119.925085  19426.045333     18.185491                    
V  1   1818.725922  24761.998534  14320.291775      0.007814                    
P  2 -13615.583509 -14361.766183 -17633.161418    508.243119                    
V  2    623.223304 -22940.995995  17415.482150      0.021769                    
P  3  25479.728757   5047.524486   5324.944621    394.024168                    
V  3   5876.906290   5695.859634 -30197.438374      0.051248                    
P  4     45.543508 -26352.759550   1286.291979      7.315631                    
V  4   3834.402513   1889.803181  31382.001464     -0.001192                    
P  5 -19784.824469  -2717.481460 -17626.612181   -355.902187                    
V  5  18043.674398 -13212.735191 -18085.432984      0.031792                    
P  6  -7512.494487 -23514.830599  -9823.860353     -1.013220                    
V  6   2152.364443 -12521.702144  28342.924155     -0.020932                    
P  7   6898.895289 -23325.766677 -10153.244441    371.639757                    
V  7   2442.002593  13105.547706 -28573.402773      0.042706                    
P  8   4781.114396 -25528.250067  -3405.892238     14.864564                    
V  8   1723.789931   4791.211059 -32562.931318      0.001467                    
P  9      0.000000      0.000000      0.000000 999999.999999                    
V  9      0.000000      0.000000      0.000000 999999.999999                    
P 10  -5575.309235 -14937.232049 -21551.439855   -134.749675                    
V 10  23223.804313 -13143.987990   3576.614571     -0.016516                    
P 11  15877.878681  -4405.175773  20337.864789   -507.331367                    
V 11   9134.904199  25712.723060  -1328.414419     -0.030210                    
P 12 -23970.082673  10478.278211   3768.554288    219.827318                    
V 12   3250.328352  -4234.426284  32012.147602      0.025550                    
P 13  10234.520343 -10997.445574 -22036.165704    -23.238263                    
V 13  22632.298778  15832.334289   2455.206097     -0.038925                    
P 14   8779.478275  19156.127578  16490.551181    151.979254                    
V 14 -17975.799964  -9825.994842  21128.144079     -0.035896                    
P 15 -23347.505659  -1040.521007  12835.176670   -192.501201                    
V 15 -13436.980853  -9666.188247 -24820.258787     -0.021953                    
P 16  19517.156919   3041.613225 -17986.581375   -206.027439                    
V 16 -19455.416992  11388.980005 -18898.024171      0.022404                    
P 17  -9274.138417 -18891.035585  16599.040751   -110.910562                    
V 17  18291.360262   9325.095327  20944.088151     -0.028746                    
P 18 -11732.149296  19575.112276  13776.645259    333.208300                    
V 18 -16028.531265   6357.627887 -23806.217415      0.023480                    
P 19  23370.358065   6416.770712  11223.103516   -469.550761                    
V 19  10770.623816   9638.131133 -27115.617773     -0.020236                    
P 20  21981.303456 -14820.999148    656.932774    213.532640                    
V 20   1412.124165   3854.607771  30997.626708      0.042169                    
P 21  -3082.616513  25463.653758  -5288.542855   -374.115176                    
V 21  -4311.905058  -7500.802486 -30411.518963     -0.021545                    
P 22   1464.668217  17226.285295  20346.388011    252.420017                    
V 22 -22328.878843  12459.113392  -9204.144600      0.030151                    
P 23  18842.896337  -4407.090653 -18258.029063    -38.604317                    
V 23  19642.856738  12616.487039  16690.845163     -0.029931                    
P 24 -14449.386304   7709.513058  20871.049693    -32.246146                    
V 24  -1807.797230 -26536.065095   8635.113708     -0.006187                    
P 25 -18533.739050  17379.626774  -7575.134039     24.566198                    
V 25  -9314.486662   3046.229864  30216.778919     -0.003291                    
P 26 -22967.704423 -13119.173255   3072.229349      5.767369                    
V 26  -2630.095642  -4439.811334 -31561.508044     -0.127293                    
P 27  23517.621334  12414.347475    426.040332     -0.174551                    
V 27   -777.928069   2599.931627 -31781.771161      0.029790                    
P 28   4074.367595 -17290.275873  20308.919991    371.553746                    
V 28  22003.268024 -10653.345085 -14029.681079      0.027946                    
P 29  -9593.900667  11646.853193 -21824.308340    548.507520                    
V 29 -23523.703737 -14737.281267   2516.998106      0.026393                    
P 30   1274.078642 -26505.284604    195.788492    -36.850275                    
V 30   2932.725758   -101.362439 -31737.801535     -0.061308                    
P 31   7529.208136  22540.426669 -11380.166964    333.323051                    
V 31  -2294.562052  14754.934385  27641.894924     -0.002525                    
P 32  23556.485384  -2541.206565  11477.873686   -379.571236                    
V 32 -11770.214472   9398.874130  26883.853062      0.083609                    
EOF
